NORAD_CAT_ID,OBJECT_NAME,OBJECT_TYPE,EPOCH,MEAN_MOTION,ECCENTRICITY,INCLINATION,RA_OF_ASC_NODE,ARG_OF_PERICENTER,MEAN_ANOMALY,BSTAR,MEAN_MOTION_DOT,MEAN_MOTION_DDOT,TLE_LINE0,TLE_LINE1,TLE_LINE2,SEMIMAJOR_AXIS,PERIOD,APOGEE,PERIGEE,DECAYED
49172.0,STARLINK-3091,PAYLOAD,2023-12-02 21:51:46,14.98339639,0.0002134,70.0011,201.5731,265.0774,95.0142,0.00013967,1.574e-05,0.0,0 STARLINK-3091,1 49172U 21082AU  23336.91095135  .00001574  00000-0  13967-3 0  9992,2 49172  70.0011 201.5731 0002134 265.0774  95.0142 14.98339639122476,6950.163,96.106,573.511,570.545,0.0
49172.0,STARLINK-3091,PAYLOAD,2023-12-03 01:04:02,14.9834089,0.0002145,70.001,201.2361,270.9402,89.1512,0.00017631,2.012e-05,0.0,0 STARLINK-3091,1 49172U 21082AU  23337.04447021  .00002012  00000-0  17631-3 0  9992,2 49172  70.0010 201.2361 0002145 270.9402  89.1512 14.98340890122494,6950.159,96.106,573.515,570.533,0.0
49172.0,STARLINK-3091,PAYLOAD,2023-12-03 13:53:07,14.983292,0.0001258,70.0036,199.8906,249.1492,110.9532,6.7146e-05,7.08e-06,0.0,0 STARLINK-3091,1 49172U 21082AU  23337.57855575  .00000708  00000-0  67146-4 0  9994,2 49172  70.0036 199.8906 0001258 249.1492 110.9532 14.98329200122576,6950.195,96.107,572.935,571.186,0.0
49172.0,STARLINK-3091,PAYLOAD,2023-12-03 18:41:32,14.98324411,0.0002868,69.9975,199.3826,260.5188,99.5647,-0.00016028,-2.005e-05,0.0,0 STARLINK-3091,1 49172U 21082AU  23337.77884567 -.00002005  00000-0 -16028-3 0  9995,2 49172  69.9975 199.3826 0002868 260.5188  99.5647 14.98324411122600,6950.21,96.107,574.068,570.082,0.0
49172.0,STARLINK-3091,PAYLOAD,2023-12-04 01:06:04,14.98319098,0.000307,69.9978,198.7109,265.8151,94.2657,-0.00021444,-2.65e-05,0.0,0 STARLINK-3091,1 49172U 21082AU  23338.04589021 -.00002650  00000-0 -21444-3 0  9997,2 49172  69.9978 198.7109 0003070 265.8151  94.2657 14.98319098122646,6950.227,96.108,574.225,569.958,0.0
49172.0,STARLINK-3091,PAYLOAD,2023-12-05 01:08:04,14.98359954,0.0002857,69.9971,196.1854,268.9696,91.1135,-0.00076439,-9.209e-05,0.0,0 STARLINK-3091,1 49172U 21082AU  23339.04727890 -.00009209  00000-0 -76439-3 0  9997,2 49172  69.9971 196.1854 0002857 268.9696  91.1135 14.98359954122796,6950.1,96.105,573.951,569.98,0.0
49172.0,STARLINK-3091,PAYLOAD,2023-12-05 13:57:10,14.98313607,0.0003115,69.9974,194.8387,271.8589,88.2213,0.00021799,2.508e-05,0.0,0 STARLINK-3091,1 49172U 21082AU  23339.58137567  .00002508  00000-0  21799-3 0  9994,2 49172  69.9974 194.8387 0003115 271.8589  88.2213 14.98313607122875,6950.244,96.108,574.274,569.944,0.0
49172.0,STARLINK-3091,PAYLOAD,2023-12-06 01:10:07,14.98321608,0.0002802,69.9982,193.6614,269.1695,90.9143,0.00030462,3.543e-05,0.0,0 STARLINK-3091,1 49172U 21082AU  23340.04869386  .00003543  00000-0  30462-3 0  9995,2 49172  69.9982 193.6614 0002802 269.1695  90.9143 14.98321608122944,6950.219,96.108,574.031,570.136,0.0
49172.0,STARLINK-3091,PAYLOAD,2023-12-06 21:59:51,14.98336918,0.0002629,69.9982,191.4743,273.4196,86.6662,0.00019941,2.288e-05,0.0,0 STARLINK-3091,1 49172U 21082AU  23340.91656851  .00002288  00000-0  19941-3 0  9996,2 49172  69.9982 191.4743 0002629 273.4196  86.6662 14.98336918123077,6950.171,96.107,573.864,570.209,0.0
49172.0,STARLINK-3091,PAYLOAD,2023-12-06 23:35:59,14.98337199,0.0002635,69.9981,191.3059,273.5953,86.4905,0.00020247,2.324e-05,0.0,0 STARLINK-3091,1 49172U 21082AU  23340.98332827  .00002324  00000-0  20247-3 0  9999,2 49172  69.9981 191.3059 0002635 273.5953  86.4905 14.98337199123085,6950.171,96.107,573.867,570.204,0.0
49172.0,STARLINK-3091,PAYLOAD,2023-12-07 23:37:59,14.98342037,0.0003066,69.9978,188.7805,266.2699,93.8109,0.00010847,1.202e-05,0.0,0 STARLINK-3091,1 49172U 21082AU  23341.98471923  .00001202  00000-0  10847-3 0  9990,2 49172  69.9978 188.7805 0003066 266.2699  93.8109 14.98342037123237,6950.156,96.106,574.152,569.89,0.0
49172.0,STARLINK-3091,PAYLOAD,2023-12-09 23:42:01,14.98334836,0.0002758,69.9982,183.7305,273.4053,86.679,5.2747e-05,5.36e-06,0.0,0 STARLINK-3091,1 49172U 21082AU  23343.98751918  .00000536  00000-0  52747-4 0  9992,2 49172  69.9982 183.7305 0002758 273.4053  86.6790 14.98334836123530,6950.178,96.107,573.96,570.126,0.0
49172.0,STARLINK-3091,PAYLOAD,2023-12-10 14:07:14,14.98333111,0.0002634,69.9978,182.2162,276.6977,83.3882,2.2166e-06,-6.7e-07,0.0,0 STARLINK-3091,1 49172U 21082AU  23344.58835963 -.00000067  00000-0  22166-5 0  9995,2 49172  69.9978 182.2162 0002634 276.6977  83.3882 14.98333111123624,6950.183,96.107,573.879,570.218,0.0
49172.0,STARLINK-3091,PAYLOAD,2023-12-10 22:07:54,14.98330382,0.0002679,69.9982,181.3723,271.4472,88.638,3.2824e-05,2.99e-06,0.0,0 STARLINK-3091,1 49172U 21082AU  23344.92215897  .00000299  00000-0  32824-4 0  9998,2 49172  69.9982 181.3723 0002679 271.4472  88.6380 14.98330382123677,6950.192,96.107,573.919,570.195,0.0
49172.0,STARLINK-3091,PAYLOAD,2023-12-10 23:44:02,14.98330756,0.0002657,69.9983,181.2044,269.9836,90.1018,3.4397e-05,3.17e-06,0.0,0 STARLINK-3091,1 49172U 21082AU  23344.98891859  .00000317  00000-0  34397-4 0  9990,2 49172  69.9983 181.2044 0002657 269.9836  90.1018 14.98330756123687,6950.191,96.107,573.902,570.209,0.0
49172.0,STARLINK-3091,PAYLOAD,2023-12-11 14:09:15,14.98330418,0.0002691,69.9982,179.6896,271.1559,88.9291,7.5672e-05,8.1e-06,0.0,0 STARLINK-3091,1 49172U 21082AU  23345.58975762  .00000810  00000-0  75672-4 0  9992,2 49172  69.9982 179.6896 0002691 271.1559  88.9291 14.98330418123770,6950.192,96.107,573.927,570.186,0.0
49172.0,STARLINK-3091,PAYLOAD,2023-12-11 22:09:55,14.98331296,0.0002662,69.9982,178.8479,270.8872,89.1982,7.2302e-05,7.7e-06,0.0,0 STARLINK-3091,1 49172U 21082AU  23345.92355665  .00000770  00000-0  72302-4 0  9996,2 49172  69.9982 178.8479 0002662 270.8872  89.1982 14.98331296123821,6950.189,96.107,573.904,570.204,0.0
49172.0,STARLINK-3091,PAYLOAD,2023-12-12 14:11:15,14.98333002,0.0002647,69.9982,177.1647,270.7215,89.364,9.6747e-05,1.062e-05,0.0,0 STARLINK-3091,1 49172U 21082AU  23346.59115495  .00001062  00000-0  96747-4 0  9999,2 49172  69.9982 177.1647 0002647 270.7215  89.3640 14.98333002123924,6950.184,96.107,573.888,570.209,0.0
49172.0,STARLINK-3091,PAYLOAD,2023-12-12 20:35:50,14.98302618,0.0002702,69.9983,176.4918,279.9574,80.128,-0.00024321,-2.992e-05,0.0,0 STARLINK-3091,1 49172U 21082AU  23346.85822268 -.00002992  00000-0 -24321-3 0  9994,2 49172  69.9983 176.4918 0002702 279.9574  80.1280 14.98302618123961,6950.278,96.109,574.021,570.265,0.0
49172.0,STARLINK-3091,PAYLOAD,2023-12-12 22:12:00,14.98272836,0.0002877,69.9981,176.3227,270.3278,89.7551,-0.000572,-6.901e-05,0.0,0 STARLINK-3091,1 49172U 21082AU  23346.92500934 -.00006901  00000-0 -57200-3 0  9991,2 49172  69.9981 176.3227 0002877 270.3278  89.7551 14.98272836123975,6950.37,96.111,574.234,570.235,0.0
49172.0,STARLINK-3091,PAYLOAD,2023-12-13 14:13:18,14.98316024,0.0002656,69.9981,174.6396,280.9654,79.1206,-8.0045e-05,-1.048e-05,0.0,0 STARLINK-3091,1 49172U 21082AU  23347.59258076 -.00001048  00000-0 -80045-4 0  9993,2 49172  69.9981 174.6396 0002656 280.9654  79.1206 14.98316024124073,6950.236,96.108,573.947,570.255,0.0
49172.0,STARLINK-3091,PAYLOAD,2023-12-13 19:01:42,14.98320517,0.0002279,69.9986,174.1349,276.0782,84.0117,-8.8004e-06,-1.98e-06,0.0,0 STARLINK-3091,1 49172U 21082AU  23347.79285793 -.00000198  00000-0 -88004-5 0  9990,2 49172  69.9986 174.1349 0002279 276.0782  84.0117 14.98320517124102,6950.222,96.108,573.671,570.503,0.0
49172.0,STARLINK-3091,PAYLOAD,2023-12-13 22:13:58,14.98325991,0.0001987,69.9993,173.7998,267.0824,93.0107,6.5851e-05,6.93e-06,0.0,0 STARLINK-3091,1 49172U 21082AU  23347.92637345  .00000693  00000-0  65851-4 0  9991,2 49172  69.9993 173.7998 0001987 267.0824  93.0107 14.98325991124129,6950.205,96.107,573.451,570.689,0.0
49172.0,STARLINK-3091,PAYLOAD,2023-12-14 14:15:18,14.98334513,0.0002073,69.999,172.1161,266.3632,93.729,0.0001629,1.851e-05,0.0,0 STARLINK-3091,1 49172U 21082AU  23348.59396708  .00001851  00000-0  16290-3 0  9999,2 49172  69.9990 172.1161 0002073 266.3632  93.7290 14.98334513124228,6950.179,96.107,573.485,570.603,0.0
49172.0,STARLINK-3091,PAYLOAD,2023-12-14 22:15:59,14.98332149,0.0002174,69.9995,171.2733,277.3037,82.7875,0.00033161,3.866e-05,0.0,0 STARLINK-3091,1 49172U 21082AU  23348.92777415  .00003866  00000-0  33161-3 0  9998,2 49172  69.9995 171.2733 0002174 277.3037  82.7875 14.98332149124276,6950.186,96.107,573.562,570.54,0.0
49172.0,STARLINK-3091,PAYLOAD,2023-12-15 14:17:19,14.98344536,0.0002417,69.999,169.59,280.2341,79.8546,0.00024492,2.832e-05,0.0,0 STARLINK-3091,1 49172U 21082AU  23349.59536701  .00002832  00000-0  24492-3 0  9992,2 49172  69.9990 169.5900 0002417 280.2341  79.8546 14.98344536124374,6950.148,96.106,573.693,570.333,0.0
49172.0,STARLINK-3091,PAYLOAD,2023-12-15 22:17:59,14.98346436,0.0002444,69.9992,168.7484,281.3348,78.7536,0.00024074,2.782e-05,0.0,0 STARLINK-3091,1 49172U 21082AU  23349.92916324  .00002782  00000-0  24074-3 0  9992,2 49172  69.9992 168.7484 0002444 281.3348  78.7536 14.98346436124427,6950.142,96.106,573.706,570.308,0.0
49172.0,STARLINK-3091,PAYLOAD,2023-12-16 14:19:19,14.9834666,0.0002357,69.9994,167.0656,279.3466,80.7426,0.00018944,2.169e-05,0.0,0 STARLINK-3091,1 49172U 21082AU  23350.59675769  .00002169  00000-0  18944-3 0  9990,2 49172  69.9994 167.0656 0002357 279.3466  80.7426 14.98346660124524,6950.141,96.106,573.645,570.368,0.0
49172.0,STARLINK-3091,PAYLOAD,2023-12-16 22:19:59,14.98344201,0.0002426,69.9996,166.224,281.1246,78.964,9.3457e-05,1.023e-05,0.0,0 STARLINK-3091,1 49172U 21082AU  23350.93055512  .00001023  00000-0  93457-4 0  9997,2 49172  69.9996 166.2240 0002426 281.1246  78.9640 14.98344201124571,6950.149,96.106,573.7,570.328,0.0
49172.0,STARLINK-3091,PAYLOAD,2023-12-17 14:21:20,14.9834043,0.0002268,70.0001,164.5416,276.6877,83.4024,6.5963e-06,-1.4e-07,0.0,0 STARLINK-3091,1 49172U 21082AU  23351.59815255 -.00000014  00000-0  65963-5 0  9990,2 49172  70.0001 164.5416 0002268 276.6877  83.4024 14.98340430124678,6950.161,96.106,573.602,570.449,0.0
